STARLINK-2555           
1 48291U 21036R   26068.32147729  .00007762  00000+0  27379-3 0  9995
2 48291  53.1596  79.5263 0001444  93.9997 266.1168 15.30217775268314
KUIPER-00208            
1 67775U 26030M   26068.67231509  .00043852  00000+0  13883-2 0  9994
2 67775  51.8846 219.6993 0015525  57.3146 302.9333 15.32208734  5080
